{
  "type": "FeatureCollection",
  "features": [
    {
      "type": "Feature",
      "properties": {
        "name": "Moscow MKAD Subway Boundary",
        "description": "Bounding polygon for Moscow Metro Coverage area"
      },
      "geometry": {
        "type": "Polygon",
        "coordinates": [
          [
            [
              37.8973,
              55.7558
            ],
            [
              37.88775923136094,
              55.79979923766743
            ],
            [
              37.859787113059646,
              55.8408
            ],
            [
              37.81528989873223,
              55.87600815280172
            ],
            [
              37.7573,
              55.903024318643354
            ],
            [
              37.68976933262871,
              55.920007390469145
            ],
            [
              37.6173,
              55.9258
            ],
            [
              37.54483066737129,
              55.920007390469145
            ],
            [
              37.4773,
              55.903024318643354
            ],
            [
              37.41931010126777,
              55.87600815280172
            ],
            [
              37.374812886940354,
              55.8408
            ],
            [
              37.34684076863906,
              55.79979923766743
            ],
            [
              37.3373,
              55.7558
            ],
            [
              37.34684076863906,
              55.71180076233257
            ],
            [
              37.374812886940354,
              55.6708
            ],
            [
              37.41931010126777,
              55.635591847198285
            ],
            [
              37.4773,
              55.60857568135665
            ],
            [
              37.54483066737129,
              55.591592609530856
            ],
            [
              37.6173,
              55.5858
            ],
            [
              37.68976933262871,
              55.591592609530856
            ],
            [
              37.7573,
              55.60857568135665
            ],
            [
              37.81528989873223,
              55.635591847198285
            ],
            [
              37.859787113059646,
              55.6708
            ],
            [
              37.88775923136094,
              55.71180076233257
            ],
            [
              37.8973,
              55.7558
            ]
          ]
        ]
      }
    }
  ]
}